[{"OBJECT_NAME":"ASTRA 4A (SIRIUS 4)","OBJECT_ID":"2007-057A","EPOCH":"2023-04-26T23:51:42.874272","MEAN_MOTION":1.00271229,"ECCENTRICITY":0.0002506,"INCLINATION":0.0445,"RA_OF_ASC_NODE":71.7083,"ARG_OF_PERICENTER":313.0843,"MEAN_ANOMALY":192.6692,"EPHEMERIS_TYPE":0,"CLASSIFICATION_TYPE":"U","NORAD_CAT_ID":32299,"ELEMENT_SET_NO":999,"REV_AT_EPOCH":5645,"BSTAR":0,"MEAN_MOTION_DOT":3.1e-7,"MEAN_MOTION_DDOT":0},{"OBJECT_NAME":"HORIZONS-2","OBJECT_ID":"2007-063B","EPOCH":"2023-04-26T12:28:20.316576","MEAN_MOTION":1.00269383,"ECCENTRICITY":0.0002285,"INCLINATION":0.0112,"RA_OF_ASC_NODE":253.6644,"ARG_OF_PERICENTER":153.7076,"MEAN_ANOMALY":280.158,"EPHEMERIS_TYPE":0,"CLASSIFICATION_TYPE":"U","NORAD_CAT_ID":32388,"ELEMENT_SET_NO":999,"REV_AT_EPOCH":5630,"BSTAR":0,"MEAN_MOTION_DOT":-2.55e-6,"MEAN_MOTION_DDOT":0},{"OBJECT_NAME":"THURAYA-3","OBJECT_ID":"2008-001A","EPOCH":"2023-04-26T20:37:08.558976","MEAN_MOTION":1.00273911,"ECCENTRICITY":0.000249,"INCLINATION":4.3464,"RA_OF_ASC_NODE":27.8733,"ARG_OF_PERICENTER":358.1775,"MEAN_ANOMALY":236.314,"EPHEMERIS_TYPE":0,"CLASSIFICATION_TYPE":"U","NORAD_CAT_ID":32404,"ELEMENT_SET_NO":999,"REV_AT_EPOCH":5602,"BSTAR":0,"MEAN_MOTION_DOT":-3.03e-6,"MEAN_MOTION_DDOT":0},{"OBJECT_NAME":"EXPRESS-AM33","OBJECT_ID":"2008-003A","EPOCH":"2023-04-26T17:41:15.782208","MEAN_MOTION":1.00287541,"ECCENTRICITY":0.0001961,"INCLINATION":1.8533,"RA_OF_ASC_NODE":89.1825,"ARG_OF_PERICENTER":230.7038,"MEAN_ANOMALY":155.4281,"EPHEMERIS_TYPE":0,"CLASSIFICATION_TYPE":"U","NORAD_CAT_ID":32478,"ELEMENT_SET_NO":999,"REV_AT_EPOCH":4223,"BSTAR":0,"MEAN_MOTION_DOT":-3.6e-7,"MEAN_MOTION_DDOT":0},{"OBJECT_NAME":"THOR 5","OBJECT_ID":"2008-006A","EPOCH":"2023-04-26T17:58:52.538880","MEAN_MOTION":1.00272467,"ECCENTRICITY":0.0002477,"INCLINATION":0.0112,"RA_OF_ASC_NODE":226.5309,"ARG_OF_PERICENTER":172.2788,"MEAN_ANOMALY":84.6286,"EPHEMERIS_TYPE":0,"CLASSIFICATION_TYPE":"U","NORAD_CAT_ID":32487,"ELEMENT_SET_NO":999,"REV_AT_EPOCH":5580,"BSTAR":0,"MEAN_MOTION_DOT":-1.1e-7,"MEAN_MOTION_DDOT":0},{"OBJECT_NAME":"AMC-14","OBJECT_ID":"2008-011A","EPOCH":"2023-04-26T00:17:42.736416","MEAN_MOTION":1.00272932,"ECCENTRICITY":0.0043222,"INCLINATION":22.5181,"RA_OF_ASC_NODE":34.3551,"ARG_OF_PERICENTER":0.2201,"MEAN_ANOMALY":201.018,"EPHEMERIS_TYPE":0,"CLASSIFICATION_TYPE":"U","NORAD_CAT_ID":32708,"ELEMENT_SET_NO":999,"REV_AT_EPOCH":5664,"BSTAR":0,"MEAN_MOTION_DOT":7.1e-7,"MEAN_MOTION_DDOT":0},{"OBJECT_NAME":"DIRECTV 11","OBJECT_ID":"2008-013A","EPOCH":"2023-04-26T15:22:34.078080","MEAN_MOTION":1.00272782,"ECCENTRICITY":2.9e-5,"INCLINATION":0.0452,"RA_OF_ASC_NODE":67.5621,"ARG_OF_PERICENTER":156.5785,"MEAN_ANOMALY":121.7035,"EPHEMERIS_TYPE":0,"CLASSIFICATION_TYPE":"U","NORAD_CAT_ID":32729,"ELEMENT_SET_NO":999,"REV_AT_EPOCH":3408,"BSTAR":0,"MEAN_MOTION_DOT":-1.28e-6,"MEAN_MOTION_DDOT":0},{"OBJECT_NAME":"ICO G1","OBJECT_ID":"2008-016A","EPOCH":"2023-04-26T10:47:22.061760","MEAN_MOTION":1.00271886,"ECCENTRICITY":0.0002436,"INCLINATION":4.3525,"RA_OF_ASC_NODE":30.8344,"ARG_OF_PERICENTER":358.8266,"MEAN_ANOMALY":253.5202,"EPHEMERIS_TYPE":0,"CLASSIFICATION_TYPE":"U","NORAD_CAT_ID":32763,"ELEMENT_SET_NO":999,"REV_AT_EPOCH":5503,"BSTAR":0,"MEAN_MOTION_DOT":-1.72e-6,"MEAN_MOTION_DDOT":0},{"OBJECT_NAME":"VINASAT-1","OBJECT_ID":"2008-018A","EPOCH":"2023-04-26T18:01:42.516192","MEAN_MOTION":1.00276042,"ECCENTRICITY":0.0001564,"INCLINATION":0.0082,"RA_OF_ASC_NODE":73.0136,"ARG_OF_PERICENTER":333.5968,"MEAN_ANOMALY":210.2402,"EPHEMERIS_TYPE":0,"CLASSIFICATION_TYPE":"U","NORAD_CAT_ID":32767,"ELEMENT_SET_NO":999,"REV_AT_EPOCH":5509,"BSTAR":0,"MEAN_MOTION_DOT":-3.3e-6,"MEAN_MOTION_DDOT":0},{"OBJECT_NAME":"STAR ONE C2","OBJECT_ID":"2008-018B","EPOCH":"2023-04-26T19:23:43.518912","MEAN_MOTION":1.00273076,"ECCENTRICITY":0.0002477,"INCLINATION":0.0421,"RA_OF_ASC_NODE":47.5211,"ARG_OF_PERICENTER":350.633,"MEAN_ANOMALY":42.3165,"EPHEMERIS_TYPE":0,"CLASSIFICATION_TYPE":"U","NORAD_CAT_ID":32768,"ELEMENT_SET_NO":999,"REV_AT_EPOCH":5515,"BSTAR":0,"MEAN_MOTION_DOT":-2.78e-6,"MEAN_MOTION_DDOT":0},{"OBJECT_NAME":"AMOS-3","OBJECT_ID":"2008-022A","EPOCH":"2023-04-26T23:59:42.750240","MEAN_MOTION":1.00272843,"ECCENTRICITY":0.0002319,"INCLINATION":0.0104,"RA_OF_ASC_NODE":204.7471,"ARG_OF_PERICENTER":182.8136,"MEAN_ANOMALY":182.9528,"EPHEMERIS_TYPE":0,"CLASSIFICATION_TYPE":"U","NORAD_CAT_ID":32794,"ELEMENT_SET_NO":999,"REV_AT_EPOCH":5494,"BSTAR":0,"MEAN_MOTION_DOT":-3.7e-7,"MEAN_MOTION_DDOT":0},{"OBJECT_NAME":"GALAXY 18 (G-18)","OBJECT_ID":"2008-024A","EPOCH":"2023-04-27T04:55:40.320192","MEAN_MOTION":1.00272808,"ECCENTRICITY":0.0002924,"INCLINATION":0.0064,"RA_OF_ASC_NODE":201.2068,"ARG_OF_PERICENTER":193.45,"MEAN_ANOMALY":131.1864,"EPHEMERIS_TYPE":0,"CLASSIFICATION_TYPE":"U","NORAD_CAT_ID":32951,"ELEMENT_SET_NO":999,"REV_AT_EPOCH":5458,"BSTAR":0,"MEAN_MOTION_DOT":2.3e-7,"MEAN_MOTION_DDOT":0},{"OBJECT_NAME":"CHINASAT 9 (ZX 9)","OBJECT_ID":"2008-028A","EPOCH":"2023-04-26T07:40:05.808288","MEAN_MOTION":1.00270611,"ECCENTRICITY":0.0004093,"INCLINATION":0.0068,"RA_OF_ASC_NODE":174.6019,"ARG_OF_PERICENTER":224.1596,"MEAN_ANOMALY":22.5146,"EPHEMERIS_TYPE":0,"CLASSIFICATION_TYPE":"U","NORAD_CAT_ID":33051,"ELEMENT_SET_NO":999,"REV_AT_EPOCH":5450,"BSTAR":0,"MEAN_MOTION_DOT":-2.5e-6,"MEAN_MOTION_DDOT":0},{"OBJECT_NAME":"SKYNET 5C","OBJECT_ID":"2008-030A","EPOCH":"2023-04-27T00:47:01.389408","MEAN_MOTION":1.00272271,"ECCENTRICITY":0.0005167,"INCLINATION":0.8352,"RA_OF_ASC_NODE":88.0448,"ARG_OF_PERICENTER":312.0087,"MEAN_ANOMALY":168.6659,"EPHEMERIS_TYPE":0,"CLASSIFICATION_TYPE":"U","NORAD_CAT_ID":33055,"ELEMENT_SET_NO":999,"REV_AT_EPOCH":5439,"BSTAR":0,"MEAN_MOTION_DOT":-1.41e-6,"MEAN_MOTION_DDOT":0},{"OBJECT_NAME":"TURKSAT 3A","OBJECT_ID":"2008-030B","EPOCH":"2023-04-27T01:55:42.742848","MEAN_MOTION":1.00271582,"ECCENTRICITY":0.0004552,"INCLINATION":0.0648,"RA_OF_ASC_NODE":98.1281,"ARG_OF_PERICENTER":303.979,"MEAN_ANOMALY":243.6094,"EPHEMERIS_TYPE":0,"CLASSIFICATION_TYPE":"U","NORAD_CAT_ID":33056,"ELEMENT_SET_NO":999,"REV_AT_EPOCH":5457,"BSTAR":0,"MEAN_MOTION_DOT":1.44e-6,"MEAN_MOTION_DDOT":0},{"OBJECT_NAME":"INTELSAT 25 (IS-25)","OBJECT_ID":"2008-034A","EPOCH":"2023-04-26T19:33:23.408928","MEAN_MOTION":1.00272281,"ECCENTRICITY":0.000287,"INCLINATION":0.0195,"RA_OF_ASC_NODE":310.3108,"ARG_OF_PERICENTER":91.1498,"MEAN_ANOMALY":74.9313,"EPHEMERIS_TYPE":0,"CLASSIFICATION_TYPE":"U","NORAD_CAT_ID":33153,"ELEMENT_SET_NO":999,"REV_AT_EPOCH":5419,"BSTAR":0,"MEAN_MOTION_DOT":-2.26e-6,"MEAN_MOTION_DDOT":0},{"OBJECT_NAME":"BADR-6","OBJECT_ID":"2008-034B","EPOCH":"2023-04-27T02:27:42.698592","MEAN_MOTION":1.00271924,"ECCENTRICITY":0.0006727,"INCLINATION":0.0808,"RA_OF_ASC_NODE":61.9855,"ARG_OF_PERICENTER":347.6533,"MEAN_ANOMALY":228.097,"EPHEMERIS_TYPE":0,"CLASSIFICATION_TYPE":"U","NORAD_CAT_ID":33154,"ELEMENT_SET_NO":999,"REV_AT_EPOCH":5425,"BSTAR":0,"MEAN_MOTION_DOT":1.43e-6,"MEAN_MOTION_DDOT":0}]
