ASTRA 4A (SIRIUS 4)     
1 32299U 07057A   23116.99424623  .00000031  00000+0  00000+0 0  9998
2 32299   0.0445  71.7083 0002506 313.0843 192.6692  1.00271229 56450
HORIZONS-2              
1 32388U 07063B   23116.51967959 -.00000255  00000+0  00000+0 0  9995
2 32388   0.0112 253.6644 0002285 153.7076 280.1580  1.00269383 56306
THURAYA-3               
1 32404U 08001A   23116.85912684 -.00000303  00000+0  00000+0 0  9993
2 32404   4.3464  27.8733 0002490 358.1775 236.3140  1.00273911 56023
EXPRESS-AM33            
1 32478U 08003A   23116.73698822 -.00000036  00000+0  00000+0 0  9991
2 32478   1.8533  89.1825 0001961 230.7038 155.4281  1.00287541 42234
THOR 5                  
1 32487U 08006A   23116.74921920 -.00000011  00000+0  00000+0 0  9996
2 32487   0.0112 226.5309 0002477 172.2788  84.6286  1.00272467 55803
AMC-14                  
1 32708U 08011A   23116.01230019  .00000071  00000+0  00000+0 0  9995
2 32708  22.5181  34.3551 0043222   0.2201 201.0180  1.00272932 56649
DIRECTV 11              
1 32729U 08013A   23116.64067220 -.00000128  00000+0  00000+0 0  9995
2 32729   0.0452  67.5621 0000290 156.5785 121.7035  1.00272782 34084
ICO G1                  
1 32763U 08016A   23116.44956090 -.00000172  00000+0  00000+0 0  9995
2 32763   4.3525  30.8344 0002436 358.8266 253.5202  1.00271886 55032
VINASAT-1               
1 32767U 08018A   23116.75118653 -.00000330  00000+0  00000+0 0  9996
2 32767   0.0082  73.0136 0001564 333.5968 210.2402  1.00276042 55092
STAR ONE C2             
1 32768U 08018B   23116.80814258 -.00000278  00000+0  00000+0 0  9998
2 32768   0.0421  47.5211 0002477 350.6330  42.3165  1.00273076 55158
AMOS-3                  
1 32794U 08022A   23116.99980035 -.00000037  00000+0  00000+0 0  9992
2 32794   0.0104 204.7471 0002319 182.8136 182.9528  1.00272843 54945
GALAXY 18 (G-18)        
1 32951U 08024A   23117.20532778  .00000023  00000+0  00000+0 0  9995
2 32951   0.0064 201.2068 0002924 193.4500 131.1864  1.00272808 54584
CHINASAT 9 (ZX 9)       
1 33051U 08028A   23116.31951167 -.00000250  00000+0  00000+0 0  9992
2 33051   0.0068 174.6019 0004093 224.1596  22.5146  1.00270611 54503
SKYNET 5C               
1 33055U 08030A   23117.03265497 -.00000141  00000+0  00000+0 0  9992
2 33055   0.8352  88.0448 0005167 312.0087 168.6659  1.00272271 54392
TURKSAT 3A              
1 33056U 08030B   23117.08035582  .00000144  00000+0  00000+0 0  9990
2 33056   0.0648  98.1281 0004552 303.9790 243.6094  1.00271582 54578
INTELSAT 25 (IS-25)     
1 33153U 08034A   23116.81485427 -.00000226  00000+0  00000+0 0  9991
2 33153   0.0195 310.3108 0002870  91.1498  74.9313  1.00272281 54196
BADR-6                  
1 33154U 08034B   23117.10257753  .00000143  00000+0  00000+0 0  9991
2 33154   0.0808  61.9855 0006727 347.6533 228.0970  1.00271924 54251
